TDRS 3                  
1 19548U 88091B   21014.90570802 -.00000306  00000-0  00000-0 0  9992
2 19548  14.0581 355.5756 0039547 321.8656  74.3443  1.00269827105548
FLTSATCOM 8 (USA 46)    
1 20253U 89077A   21014.93803862 -.00000086  00000-0  00000-0 0  9995
2 20253  12.9910   3.9010 0001928 336.1078 184.1484  1.00272195240763
SKYNET 4C               
1 20776U 90079A   21015.10604844  .00000118  00000-0  00000+0 0  9992
2 20776  13.9318   4.1402 0002730 282.7245 259.4519  1.00271299111090
TDRS 5                  
1 21639U 91054B   21015.22039622  .00000077  00000-0  00000+0 0  9998
2 21639  14.2513   8.8788 0025074 358.2873  19.3937  1.00278566107861
TDRS 6                  
1 22314U 93003B   21015.40635958 -.00000302  00000-0  00000+0 0  9991
2 22314  14.0759  12.0507 0005377  64.7824 138.7146  1.00271208102530
UFO 2 (USA 95)          
1 22787U 93056A   21015.60484221  .00000119  00000-0  00000+0 0  9995
2 22787  11.3395  14.0759 0007154 263.8154  83.8950  1.00268798 98812
USA 99 (MILSTAR-1 1)    
1 22988U 94009A   21015.16646153 -.00000207  00000-0  00000+0 0  9991
2 22988  14.5003  48.7056 0001367 271.9883 124.0725  1.00272383 11806
ASTRA 1D                
1 23331U 94070A   21014.52153142 -.00000278  00000-0  00000+0 0  9990
2 23331   9.3943  40.9667 0003580 253.5719 294.4055  1.00274402 96310
USA 107 (DSP 17)        
1 23435U 94084A   21015.09132774 -.00000173  00000-0  00000+0 0  9995
2 23435  14.5757  10.0696 0001209  75.7343 325.2028  1.00269443 11857
UFO 4 (USA 108)         
1 23467U 95003A   21014.73758998 -.00000032  00000-0  00000-0 0  9999
2 23467   9.8266  19.9503 0001874  17.3072 154.7886  1.00274989 95106
AMSC 1                  
1 23553U 95019A   21015.54453295 -.00000108  00000-0  00000+0 0  9997
2 23553  11.4644  29.7103 0007770 313.6242 221.3878  1.00272151 94322
TDRS 7                  
1 23613U 95035B   21015.47248051 -.00000209  00000-0  00000+0 0  9998
2 23613  14.1468   2.7313 0027300  29.8917 337.4915  1.00271719 93311
USA 113                 
1 23628U 95038A   21014.97383914 -.00000348  00000-0  00000+0 0  9993
2 23628  11.6254  28.5601 0001406 259.4687 281.0573  1.00270862 11763
USA 115 (MILSTAR-1 2)   
1 23712U 95060A   21014.65956894 -.00000027  00000-0  00000+0 0  9994
2 23712  13.3092  18.2464 0002325 266.0640 307.4856  1.00269571 11798
INMARSAT 3-F1           
1 23839U 96020A   21014.81440837 -.00000346  00000-0  00000-0 0  9999
2 23839   6.4905  61.1956 0004349 240.3346 218.9752  0.99987900 90465
INMARSAT 3-F2           
1 24307U 96053A   21014.80765444 -.00000139  00000-0  00000-0 0  9999
2 24307   5.3644  70.6064 0004720 261.8382  63.0790  1.00003463 89128
AMC-1 (GE-1)            
1 24315U 96054A   21015.52968954  .00000057  00000-0  00000+0 0  9997
2 24315   4.4170  77.2496 0003044 224.7451 232.9628  1.00273042 89181
INMARSAT 3-F3           
1 24674U 96070A   21015.54945229  .00000024  00000-0  00000+0 0  9999
2 24674   6.0407  65.0187 0004956 239.8626 186.2212  1.00269419 88111
INTELSAT 26 (IS-26)     
1 24732U 97007A   21014.67867236 -.00000005  00000-0  00000-0 0  9990
2 24732   9.3356  41.7540 0003568 294.6491  85.8939  1.00271332 52899
USA 130 (DSP 18)        
1 24737U 97008A   21015.26905757  .00000021  00000-0  00000+0 0  9999
2 24737  13.6683  18.0147 0000909 222.5899 339.4703  1.00265080 11764
GALAXY 25 (G-25)        
1 24812U 97026A   21015.46218667  .00000147  00000-0  00000+0 0  9991
2 24812   2.4286  88.6222 0002869 192.2880  33.4312  1.00270418 86535
INTELSAT 5 (IS-5)       
1 24916U 97046A   21015.49340644  .00000080  00000-0  00000+0 0  9998
2 24916   6.1425  64.3668 0003503 212.8952 238.5179  1.00272858 85770
AMC-3 (GE-3)            
1 24936U 97050A   21015.49691611 -.00000269  00000-0  00000+0 0  9998
2 24936   3.3008  84.0639 0002864 204.1331 293.8244  1.00271717 85601
NSS-5                   
1 24957U 97053A   21015.14466663  .00000095  00000-0  00000+0 0  9999
2 24957   6.3925  62.6025 0003549 223.0596 291.7114  1.00269427 85394
USA 134                 
1 25019U 97065A   21015.54210494 -.00000072  00000-0  00000+0 0  9991
2 25019  10.4620  34.7293 0006319 298.9129 224.9509  1.00274453 11761
ASTRA 1G                
1 25071U 97076A   21015.14436628  .00000137  00000-0  00000+0 0  9997
2 25071   5.0817  71.9431 0004111 205.0204 289.7645  1.00044803 84691
INMARSAT 3-F5           
1 25153U 98006B   21015.43854032 -.00000298  00000-0  00000+0 0  9996
2 25153   5.2662  69.1087 0004918 225.5553 284.3047  1.00269954 84049
UFO 8 (USA 138)         
1 25258U 98016A   21015.45757469 -.00000033  00000-0  00000+0 0  9998
2 25258   8.8832  31.9511 0003452 273.2911 146.1629  1.00273231 83731
ASTRA 2A                
1 25462U 98050A   21015.10225063  .00000141  00000-0  00000+0 0  9994
2 25462   2.1323  91.0047 0002016 201.0578 247.4600  1.00274248 81892
JCSAT-4A                
1 25630U 99006A   21014.62135824 -.00000319  00000-0  00000+0 0  9992
2 25630   5.0659  72.6473 0010184 197.4760 203.8534  1.00273184 80155
SKYNET 4E               
1 25639U 99009B   21015.20946400 -.00000041  00000-0  00000+0 0  9991
2 25639  10.9852  19.7994 0003621 270.5897 258.7085  1.00270574 80178
ASIASAT 3S              
1 25657U 99013A   21015.55263612 -.00000235  00000-0  00000+0 0  9996
2 25657   5.2526  71.1346 0002305 245.3320 145.1733  1.00270597 79986
NIMIQ 1                 
1 25740U 99027A   21015.07948200 -.00000206  00000-0  00000+0 0  9992
2 25740   1.6030  92.3029 0004795 205.5124 118.9900  1.00272069 79369
ABS-7                   
1 25894U 99046A   21015.10966568  .00000026  00000-0  00000+0 0  9993
2 25894   1.4821  92.9620 0005328 207.8164 278.5234  1.00129429 77294
ABS-6                   
1 25924U 99053A   21014.84132757 -.00000127  00000-0  00000-0 0  9994
2 25924   0.0308 329.0057 0002118 322.0657 285.3192  1.00270788 78028
AMC-4 (GE-4)            
1 25954U 99060A   21015.52683953  .00000081  00000-0  00000+0 0  9997
2 25954   0.2402  97.3730 0002469 201.9986 230.5548  1.00271442 77642
UFO 10 (USA 146)        
1 25967U 99063A   21015.37931237 -.00000193  00000-0  00000+0 0  9993
2 25967   8.1028  35.0385 0003054 282.1266 271.9049  1.00269093 77492
GALAXY 11 (G-11)        
1 26038U 99071A   21015.07817346 -.00000170  00000-0  00000+0 0  9998
2 26038   1.7310  94.7992 0000561 316.3925 358.5755  1.00271251 77230
USA 148                 
1 26052U 00001A   21015.20692321  .00000032  00000-0  00000+0 0  9994
2 26052   8.7347  45.4296 0001575 295.3890  28.8551  1.00276265 11774
ASIASTAR                
1 26107U 00016A   21014.88200199 -.00000343  00000-0  00000-0 0  9999
2 26107   4.4899  75.8202 0004043 214.7316 246.4998  1.00273843 76082
USA 149 (DSP 20)        
1 26356U 00024A   21014.70493042  .00000091  00000-0  00000-0 0  9995
2 26356  11.7024  24.9655 0000918  13.9270 164.4175  1.00288220 13061
EUTELSAT 80A            
1 26369U 00028A   21015.10635071  .00000112  00000-0  00000+0 0  9991
2 26369   3.8775  79.6897 0004503 213.4164 268.1886  1.00268750 75636
TDRS 8                  
1 26388U 00034A   21014.94058833 -.00000242  00000-0  00000-0 0  9991
2 26388   9.5575  46.0990 0019037 313.9188 182.2205  1.00279829 75337
INTELSAT 9 (IS-9)       
1 26451U 00043A   21015.44569904 -.00000296  00000-0  00000+0 0  9992
2 26451   6.1317  64.5650 0002454 226.1269 294.8594  1.00271151 75008
BRASILSAT B4            
1 26469U 00046A   21014.07342403 -.00000180  00000-0  00000-0 0  9998
2 26469   4.4584  76.9669 0002963 222.8699 108.2391  1.00267987 75102
ASTRA 2B                
1 26494U 00054A   21015.31597898  .00000108  00000-0  00000+0 0  9991
2 26494   4.9837  72.5448 0004706 221.1819 314.5626  1.00272720 74390
NSS-11 (AAP-1)          
1 26554U 00059A   21015.17410248  .00000018  00000-0  00000+0 0  9990
2 26554   0.0105  22.6155 0002695 283.1155  47.7498  1.00271873 74333
USA 153                 
1 26575U 00065A   21015.48242542 -.00000333  00000-0  00000+0 0  9995
2 26575   8.2399  48.7264 0001829 272.3813 102.1024  1.00267840 11779
AMC-6 (GE-6)            
1 26580U 00067A   21015.21831918  .00000098  00000-0  00000+0 0  9992
2 26580   0.0554 288.4543 0002528  13.5133 112.4727  1.00270130 74148
INTELSAT 12 (IS-12)     
1 26590U 00068A   21015.10949120  .00000004  00000-0  00000+0 0  9994
2 26590   3.4296  84.3977 0002959 213.7799 280.2164  1.00272465 73953
INTELSAT 1R (IS-1R)     
1 26608U 00072A   21014.84089139 -.00000147  00000-0  00000-0 0  9994
2 26608   3.1838  84.4735 0000262 159.1383 330.7045  1.00271774 21473
ANIK F1                 
1 26624U 00076A   21015.54445767 -.00000080  00000-0  00000+0 0  9992
2 26624   0.1543 101.6834 0003249 311.9585 150.2410  1.00271293 73882
ASTRA 2D                
1 26638U 00081A   21015.17989073  .00000053  00000-0  00000+0 0  9994
2 26638   6.2187  63.5427 0002305 228.1105 305.1974  1.00275045 73549
AMC-8 (GE-8)            
1 26639U 00081B   21015.52691725  .00000081  00000-0  00000+0 0  9999
2 26639   1.1690  93.9061 0002848 208.3321 227.6267  1.00272259 73431
USA 157 (MILSTAR-2 2)   
1 26715U 01009A   21015.17712568  .00000060  00000-0  00000+0 0  9992
2 26715   9.5254  29.5679 0003706 273.0405  58.7382  1.00404524 11794
EUTELSAT 133 WEST A     
1 26719U 01011A   21015.52868187  .00000069  00000-0  00000+0 0  9996
2 26719   2.4640  87.3250 0004956 210.8011 234.4805  1.00272587 72732
INTELSAT 10 (IS-10)     
1 26766U 01019A   21015.17797153  .00000114  00000-0  00000+0 0  9992
2 26766   4.3732  77.5043 0003016 209.7853 299.0933  1.00273213 72089
INTELSAT 901 (IS-901)   
1 26824U 01024A   21015.45014809 -.00000209  00000-0  00000+0 0  9990
2 26824   0.0573 254.9965 0000762  50.7487 303.9092  1.00271911 71742
ASTRA 2C                
1 26853U 01025A   21015.10146549  .00000127  00000-0  00000+0 0  9990
2 26853   3.3255  83.8413 0002524 214.0679 237.0660  1.00274303 71735
